NORAD_CAT_ID,OBJECT_NAME,OBJECT_TYPE,EPOCH,MEAN_MOTION,ECCENTRICITY,INCLINATION,RA_OF_ASC_NODE,ARG_OF_PERICENTER,MEAN_ANOMALY,BSTAR,MEAN_MOTION_DOT,MEAN_MOTION_DDOT,TLE_LINE0,TLE_LINE1,TLE_LINE2,SEMIMAJOR_AXIS,PERIOD,APOGEE,PERIGEE,DECAYED
53704.0,STARLINK-4714,PAYLOAD,2024-03-09 21:06:12,15.08837278,0.000156,53.2172,280.6243,100.6031,259.5137,6.2087e-05,7e-06,0.0,0 STARLINK-4714,1 53704U 22107E   24069.87931112  .00000700  00000-0  62087-4 0  9998,2 53704  53.2172 280.6243 0001560 100.6031 259.5137 15.08837278 84518,6917.889,95.438,540.833,538.675,0.0
53704.0,STARLINK-4714,PAYLOAD,2024-03-10 06:38:30,15.08846097,8.29e-05,53.2159,278.8373,74.9923,285.1161,0.0001009,1.319e-05,0.0,0 STARLINK-4714,1 53704U 22107E   24070.27674312  .00001319  00000-0  10090-3 0  9993,2 53704  53.2159 278.8373 0000829  74.9923 285.1161 15.08846097 83987,6917.862,95.437,540.3,539.153,0.0
53704.0,STARLINK-4714,PAYLOAD,2024-03-10 14:35:27,15.08841355,5.54e-05,53.2126,277.3502,59.8317,300.273,-0.00025992,-4.422e-05,0.0,0 STARLINK-4714,1 53704U 22107E   24070.60796177 -.00004422  00000-0 -25992-3 0  9991,2 53704  53.2126 277.3502 0000554  59.8317 300.2730 15.08841355 84628,6917.876,95.437,540.124,539.358,0.0
53704.0,STARLINK-4714,PAYLOAD,2024-03-10 19:21:36,15.08847122,8.27e-05,53.2175,276.4599,83.8198,276.2889,-0.00022037,-3.794e-05,0.0,0 STARLINK-4714,1 53704U 22107E   24070.80667692 -.00003794  00000-0 -22037-3 0  9990,2 53704  53.2175 276.4599 0000827  83.8198 276.2889 15.08847122 84068,6917.859,95.437,540.296,539.152,0.0
53704.0,STARLINK-4714,PAYLOAD,2024-03-11 06:29:17,15.08865528,4.47e-05,53.2193,274.3788,57.727,302.3765,-0.0003693,-6.164e-05,0.0,0 STARLINK-4714,1 53704U 22107E   24071.27034551 -.00006164  00000-0 -36930-3 0  9995,2 53704  53.2193 274.3788 0000447  57.7270 302.3765 15.08865528 84136,6917.802,95.436,539.977,539.358,0.0
53704.0,STARLINK-4714,PAYLOAD,2024-03-11 22:23:09,15.0886577,9.86e-05,53.2189,271.4053,87.3607,272.7498,-0.00027536,-4.671e-05,0.0,0 STARLINK-4714,1 53704U 22107E   24071.93274918 -.00004671  00000-0 -27536-3 0  9994,2 53704  53.2189 271.4053 0000986  87.3607 272.7498 15.08865770 84238,6917.802,95.436,540.349,538.985,0.0
53704.0,STARLINK-4714,PAYLOAD,2024-03-12 12:41:38,15.088374,0.0001588,53.2188,268.7291,90.7894,269.328,0.0001319,1.812e-05,0.0,0 STARLINK-4714,1 53704U 22107E   24072.52891410  .00001812  00000-0  13190-3 0  9995,2 53704  53.2188 268.7291 0001588  90.7894 269.3280 15.08837400 84325,6917.888,95.438,540.852,538.655,0.0
53704.0,STARLINK-4714,PAYLOAD,2024-03-13 12:32:25,15.08838674,0.0001258,53.2164,264.268,84.5563,275.5573,2.129e-05,5.1e-07,0.0,0 STARLINK-4714,1 53704U 22107E   24073.52251467  .00000051  00000-0  21290-4 0  9993,2 53704  53.2164 264.2680 0001258  84.5563 275.5573 15.08838674 85060,6917.884,95.438,540.62,538.879,0.0
53704.0,STARLINK-4714,PAYLOAD,2024-03-13 18:53:58,15.08838823,0.0001804,53.2144,263.0779,88.285,271.8348,3.3858e-05,2.51e-06,0.0,0 STARLINK-4714,1 53704U 22107E   24073.78747702  .00000251  00000-0  33858-4 0  9998,2 53704  53.2144 263.0779 0001804  88.2850 271.8348 15.08838823 84515,6917.884,95.438,540.997,538.501,0.0
53704.0,STARLINK-4714,PAYLOAD,2024-03-13 22:04:44,15.08838053,0.0001621,53.2131,262.4823,93.0893,267.0284,-1.3106e-05,-4.97e-06,0.0,0 STARLINK-4714,1 53704U 22107E   24073.91995827 -.00000497  00000-0 -13106-4 0  9994,2 53704  53.2131 262.4823 0001621  93.0893 267.0284 15.08838053 85121,6917.886,95.438,540.873,538.63,0.0
53704.0,STARLINK-4714,PAYLOAD,2024-03-14 06:01:39,15.08842867,0.0001542,53.2152,260.9963,90.2824,269.8345,4.2761e-05,3.93e-06,0.0,0 STARLINK-4714,1 53704U 22107E   24074.25115327  .00000393  00000-0  42761-4 0  9993,2 53704  53.2152 260.9963 0001542  90.2824 269.8345 15.08842867 85178,6917.872,95.437,540.803,538.67,0.0
53704.0,STARLINK-4714,PAYLOAD,2024-03-14 18:44:44,15.08844259,0.0001533,53.2161,258.6167,99.6951,260.4214,-2.438e-05,-6.76e-06,0.0,0 STARLINK-4714,1 53704U 22107E   24074.78107376 -.00000676  00000-0 -24380-4 0  9999,2 53704  53.2161 258.6167 0001533  99.6951 260.4214 15.08844259 85250,6917.867,95.437,540.793,538.672,0.0
53704.0,STARLINK-4714,PAYLOAD,2024-03-15 21:46:18,15.08838809,0.000154,53.2155,253.5612,101.5902,258.5263,9.2844e-05,1.19e-05,0.0,0 STARLINK-4714,1 53704U 22107E   24075.90715465  .00001190  00000-0  92844-4 0  9998,2 53704  53.2155 253.5612 0001540 101.5902 258.5263 15.08838809 85424,6917.884,95.438,540.814,538.684,0.0
53704.0,STARLINK-4714,PAYLOAD,2024-03-16 18:26:19,15.08839456,0.0001272,53.2163,249.6948,86.7308,273.383,3.3252e-05,2.41e-06,0.0,0 STARLINK-4714,1 53704U 22107E   24076.76827683  .00000241  00000-0  33252-4 0  9993,2 53704  53.2163 249.6948 0001272  86.7308 273.3830 15.08839456 85555,6917.882,95.438,540.627,538.867,0.0
53704.0,STARLINK-4714,PAYLOAD,2024-03-17 11:55:33,15.08835626,0.0001329,53.2168,246.4254,89.1854,270.9291,5.8391e-05,6.41e-06,0.0,0 STARLINK-4714,1 53704U 22107E   24077.49691855  .00000641  00000-0  58391-4 0  9999,2 53704  53.2168 246.4254 0001329  89.1854 270.9291 15.08835626 85077,6917.894,95.438,540.678,538.839,0.0
53704.0,STARLINK-4714,PAYLOAD,2024-03-17 16:41:43,15.08825732,0.0001829,53.2163,245.5321,120.0942,240.0231,-3.7264e-05,-8.81e-06,0.0,0 STARLINK-4714,1 53704U 22107E   24077.69564657 -.00000881  00000-0 -37264-4 0  9994,2 53704  53.2163 245.5321 0001829 120.0942 240.0231 15.08825732 85108,6917.924,95.438,541.054,538.524,0.0
53704.0,STARLINK-4714,PAYLOAD,2024-03-18 11:46:21,15.08836916,0.0001669,53.2167,241.9655,104.9584,255.1593,5.0276e-05,5.12e-06,0.0,0 STARLINK-4714,1 53704U 22107E   24078.49052097  .00000512  00000-0  50276-4 0  9990,2 53704  53.2167 241.9655 0001669 104.9584 255.1593 15.08836916 85224,6917.89,95.438,540.909,538.6,0.0
53704.0,STARLINK-4714,PAYLOAD,2024-03-19 10:01:44,15.08840185,0.000169,53.216,237.8003,109.3379,250.7796,8.6296e-05,1.086e-05,0.0,0 STARLINK-4714,1 53704U 22107E   24079.41787933  .00001086  00000-0  86296-4 0  9995,2 53704  53.2160 237.8003 0001690 109.3379 250.7796 15.08840185 85952,6917.88,95.438,540.914,538.576,0.0
53704.0,STARLINK-4714,PAYLOAD,2024-03-20 09:52:31,15.08840855,0.00014,53.2174,233.3418,102.5176,257.5973,5.4193e-05,5.75e-06,0.0,0 STARLINK-4714,1 53704U 22107E   24080.41148108  .00000575  00000-0  54193-4 0  9995,2 53704  53.2174 233.3418 0001400 102.5176 257.5973 15.08840855 85515,6917.878,95.438,540.711,538.774,0.0
53704.0,STARLINK-4714,PAYLOAD,2024-03-20 17:49:27,15.0883893,0.0001435,53.2174,231.854,97.4501,262.6654,3.9631e-05,3.43e-06,0.0,0 STARLINK-4714,1 53704U 22107E   24080.74268377  .00000343  00000-0  39631-4 0  9995,2 53704  53.2174 231.8540 0001435  97.4501 262.6654 15.08838930 86151,6917.884,95.438,540.741,538.756,0.0
53704.0,STARLINK-4714,PAYLOAD,2024-03-21 14:29:28,15.08845841,0.000137,53.217,227.9886,82.1656,277.9492,5.0623e-05,5.18e-06,0.0,0 STARLINK-4714,1 53704U 22107E   24081.60379989  .00000518  00000-0  50623-4 0  9991,2 53704  53.2170 227.9886 0001370  82.1656 277.9492 15.08845841 86288,6917.863,95.437,540.675,538.78,0.0
53704.0,STARLINK-4714,PAYLOAD,2024-03-22 14:20:15,15.08842316,0.0001281,53.2168,223.5272,90.1185,269.9954,0.00010957,1.456e-05,0.0,0 STARLINK-4714,1 53704U 22107E   24082.59739774  .00001456  00000-0  10957-3 0  9999,2 53704  53.2168 223.5272 0001281  90.1185 269.9954 15.08842316 86438,6917.873,95.437,540.624,538.852,0.0
53704.0,STARLINK-4714,PAYLOAD,2024-03-22 15:55:38,15.08842563,0.0001285,53.2168,223.2299,90.0613,270.0527,0.00011058,1.473e-05,0.0,0 STARLINK-4714,1 53704U 22107E   24082.66363759  .00001473  00000-0  11058-3 0  9995,2 53704  53.2168 223.2299 0001285  90.0613 270.0527 15.08842563 85851,6917.873,95.437,540.627,538.849,0.0
53704.0,STARLINK-4714,PAYLOAD,2024-03-23 12:35:39,15.08837089,0.0001403,53.2171,219.3638,94.2697,265.8455,-2.5191e-05,-6.89e-06,0.0,0 STARLINK-4714,1 53704U 22107E   24083.52476633 -.00000689  00000-0 -25191-4 0  9991,2 53704  53.2171 219.3638 0001403  94.2697 265.8455 15.08837089 85981,6917.889,95.438,540.725,538.784,0.0
53704.0,STARLINK-4714,PAYLOAD,2024-03-23 18:57:12,15.08835985,0.0001301,53.2161,218.1732,92.4034,267.7107,-4.4353e-05,-9.94e-06,0.0,0 STARLINK-4714,1 53704U 22107E   24083.78972709 -.00000994  00000-0 -44353-4 0  9994,2 53704  53.2161 218.1732 0001301  92.4034 267.7107 15.08835985 86613,6917.893,95.438,540.658,538.858,0.0
53704.0,STARLINK-4714,PAYLOAD,2024-03-24 12:26:23,15.08870389,0.0001931,53.2169,214.9074,125.0893,235.028,0.00033208,5.005e-05,0.0,0 STARLINK-4714,1 53704U 22107E   24084.51833204  .00005005  00000-0  33208-3 0  9994,2 53704  53.2169 214.9074 0001931 125.0893 235.0280 15.08870389 86133,6917.788,95.436,540.988,538.317,0.0
53704.0,STARLINK-4714,PAYLOAD,2024-03-24 14:01:50,15.08824502,0.0001352,53.216,214.6059,91.0904,269.0243,-7.9186e-05,-1.547e-05,0.0,0 STARLINK-4714,1 53704U 22107E   24084.58461214 -.00001547  00000-0 -79186-4 0  9994,2 53704  53.2160 214.6059 0001352  91.0904 269.0243 15.08824502 86734,6917.928,95.439,540.728,538.857,0.0
53704.0,STARLINK-4714,PAYLOAD,2024-03-24 15:37:14,15.08817556,0.0001441,53.2174,214.3146,82.6211,277.4945,-0.00010968,-2.032e-05,0.0,0 STARLINK-4714,1 53704U 22107E   24084.65085710 -.00002032  00000-0 -10968-3 0  9997,2 53704  53.2174 214.3146 0001441  82.6211 277.4945 15.08817556 86158,6917.949,95.439,540.811,538.817,0.0
53704.0,STARLINK-4714,PAYLOAD,2024-03-25 01:09:32,15.08825666,0.00011,53.2172,212.5259,112.2279,247.883,-5.9034e-06,-3.82e-06,0.0,0 STARLINK-4714,1 53704U 22107E   24085.04829351 -.00000382  00000-0 -59034-5 0  9993,2 53704  53.2172 212.5259 0001100 112.2279 247.8830 15.08825666 86219,6917.924,95.438,540.55,539.028,0.0
53704.0,STARLINK-4714,PAYLOAD,2024-03-25 12:17:15,15.08819402,0.0001558,53.217,210.4483,116.4756,243.6397,-2.4982e-05,-6.85e-06,0.0,0 STARLINK-4714,1 53704U 22107E   24085.51198506 -.00000685  00000-0 -24982-4 0  9995,2 53704  53.2170 210.4483 0001558 116.4756 243.6397 15.08819402 86286,6917.943,95.439,540.886,538.731,0.0
